[{"OBJECT_NAME":"STARLINK-37158","OBJECT_ID":"2026-059Y","EPOCH":"2026-04-07T01:28:09.233472","MEAN_MOTION":15.81026554,"ECCENTRICITY":0.00043498,"INCLINATION":53.1587,"RA_OF_ASC_NODE":220.5013,"ARG_OF_PERICENTER":62.702,"MEAN_ANOMALY":297.4445,"EPHEMERIS_TYPE":0,"CLASSIFICATION_TYPE":"U","NORAD_CAT_ID":68343,"ELEMENT_SET_NO":999,"REV_AT_EPOCH":246,"BSTAR":0.0022803538,"MEAN_MOTION_DOT":0.00478641,"MEAN_MOTION_DDOT":0},{"OBJECT_NAME":"STARLINK-36380","OBJECT_ID":"2026-059Z","EPOCH":"2026-04-06T17:55:06.960576","MEAN_MOTION":15.80989874,"ECCENTRICITY":0.0001105,"INCLINATION":53.1585,"RA_OF_ASC_NODE":222.096,"ARG_OF_PERICENTER":61.23,"MEAN_ANOMALY":298.8833,"EPHEMERIS_TYPE":0,"CLASSIFICATION_TYPE":"U","NORAD_CAT_ID":68344,"ELEMENT_SET_NO":999,"REV_AT_EPOCH":241,"BSTAR":0.0015505763,"MEAN_MOTION_DOT":0.00318611,"MEAN_MOTION_DDOT":0},{"OBJECT_NAME":"STARLINK-37214","OBJECT_ID":"2026-059AA","EPOCH":"2026-04-06T17:50:47.818464","MEAN_MOTION":15.80973301,"ECCENTRICITY":0.00015353,"INCLINATION":53.1589,"RA_OF_ASC_NODE":222.0757,"ARG_OF_PERICENTER":39.2177,"MEAN_ANOMALY":320.8957,"EPHEMERIS_TYPE":0,"CLASSIFICATION_TYPE":"U","NORAD_CAT_ID":68345,"ELEMENT_SET_NO":999,"REV_AT_EPOCH":241,"BSTAR":0.0013986627,"MEAN_MOTION_DOT":0.00286008,"MEAN_MOTION_DDOT":0},{"OBJECT_NAME":"STARLINK-37169","OBJECT_ID":"2026-059AB","EPOCH":"2026-04-07T01:24:54.212256","MEAN_MOTION":15.81042952,"ECCENTRICITY":0.00028856,"INCLINATION":53.1587,"RA_OF_ASC_NODE":220.486,"ARG_OF_PERICENTER":70.5609,"MEAN_ANOMALY":289.5725,"EPHEMERIS_TYPE":0,"CLASSIFICATION_TYPE":"U","NORAD_CAT_ID":68346,"ELEMENT_SET_NO":999,"REV_AT_EPOCH":246,"BSTAR":0.0023328057,"MEAN_MOTION_DOT":0.00490668,"MEAN_MOTION_DDOT":0},{"OBJECT_NAME":"STARLINK-37136","OBJECT_ID":"2026-059AC","EPOCH":"2026-04-07T01:23:49.426944","MEAN_MOTION":15.81033826,"ECCENTRICITY":0.0002736,"INCLINATION":53.1585,"RA_OF_ASC_NODE":220.481,"ARG_OF_PERICENTER":71.7508,"MEAN_ANOMALY":288.3812,"EPHEMERIS_TYPE":0,"CLASSIFICATION_TYPE":"U","NORAD_CAT_ID":68347,"ELEMENT_SET_NO":999,"REV_AT_EPOCH":246,"BSTAR":0.0022470807,"MEAN_MOTION_DOT":0.00471342,"MEAN_MOTION_DDOT":0},{"OBJECT_NAME":"STARLINK-37182","OBJECT_ID":"2026-059AD","EPOCH":"2026-04-07T01:27:04.508640","MEAN_MOTION":15.81002148,"ECCENTRICITY":0.00045206,"INCLINATION":53.1589,"RA_OF_ASC_NODE":220.4967,"ARG_OF_PERICENTER":69.2216,"MEAN_ANOMALY":290.929,"EPHEMERIS_TYPE":0,"CLASSIFICATION_TYPE":"U","NORAD_CAT_ID":68348,"ELEMENT_SET_NO":999,"REV_AT_EPOCH":246,"BSTAR":0.0019969039,"MEAN_MOTION_DOT":0.00415529,"MEAN_MOTION_DDOT":0},{"OBJECT_NAME":"STARLINK-37183","OBJECT_ID":"2026-059AE","EPOCH":"2026-04-06T17:47:33.328608","MEAN_MOTION":15.8098974,"ECCENTRICITY":7.976e-5,"INCLINATION":53.1593,"RA_OF_ASC_NODE":222.0604,"ARG_OF_PERICENTER":66.6191,"MEAN_ANOMALY":293.4916,"EPHEMERIS_TYPE":0,"CLASSIFICATION_TYPE":"U","NORAD_CAT_ID":68349,"ELEMENT_SET_NO":999,"REV_AT_EPOCH":241,"BSTAR":0.0015904739,"MEAN_MOTION_DOT":0.00327159,"MEAN_MOTION_DDOT":0},{"OBJECT_NAME":"CENTISPACE-1 OBJECT A","OBJECT_ID":"2026-060A","EPOCH":"2026-04-07T02:09:14.157216","MEAN_MOTION":14.74560609,"ECCENTRICITY":0.00132726,"INCLINATION":54.9819,"RA_OF_ASC_NODE":325.7725,"ARG_OF_PERICENTER":323.085,"MEAN_ANOMALY":36.9234,"EPHEMERIS_TYPE":0,"CLASSIFICATION_TYPE":"U","NORAD_CAT_ID":68350,"ELEMENT_SET_NO":999,"REV_AT_EPOCH":228,"BSTAR":-0.0013159778,"MEAN_MOTION_DOT":-9.038e-5,"MEAN_MOTION_DDOT":0},{"OBJECT_NAME":"CENTISPACE-1 OBJECT B","OBJECT_ID":"2026-060B","EPOCH":"2026-04-04T18:49:36.793632","MEAN_MOTION":14.74944202,"ECCENTRICITY":0.00135305,"INCLINATION":54.982,"RA_OF_ASC_NODE":335.1667,"ARG_OF_PERICENTER":326.88,"MEAN_ANOMALY":33.1351,"EPHEMERIS_TYPE":0,"CLASSIFICATION_TYPE":"U","NORAD_CAT_ID":68351,"ELEMENT_SET_NO":999,"REV_AT_EPOCH":194,"BSTAR":0.00035156248,"MEAN_MOTION_DOT":2.174e-5,"MEAN_MOTION_DDOT":0},{"OBJECT_NAME":"CENTISPACE-1 OBJECT C","OBJECT_ID":"2026-060C","EPOCH":"2026-04-05T17:33:34.489152","MEAN_MOTION":14.74891649,"ECCENTRICITY":0.00121348,"INCLINATION":54.9852,"RA_OF_ASC_NODE":331.2905,"ARG_OF_PERICENTER":338.2549,"MEAN_ANOMALY":21.7934,"EPHEMERIS_TYPE":0,"CLASSIFICATION_TYPE":"U","NORAD_CAT_ID":68352,"ELEMENT_SET_NO":999,"REV_AT_EPOCH":208,"BSTAR":4.3653263e-5,"MEAN_MOTION_DOT":8.6e-7,"MEAN_MOTION_DDOT":0},{"OBJECT_NAME":"CENTISPACE-1 OBJECT D","OBJECT_ID":"2026-060D","EPOCH":"2026-04-05T17:33:35.510400","MEAN_MOTION":14.74881966,"ECCENTRICITY":0.00124072,"INCLINATION":54.9822,"RA_OF_ASC_NODE":331.2869,"ARG_OF_PERICENTER":338.9865,"MEAN_ANOMALY":21.0623,"EPHEMERIS_TYPE":0,"CLASSIFICATION_TYPE":"U","NORAD_CAT_ID":68353,"ELEMENT_SET_NO":999,"REV_AT_EPOCH":208,"BSTAR":4.367931e-5,"MEAN_MOTION_DOT":8.6e-7,"MEAN_MOTION_DDOT":0},{"OBJECT_NAME":"CENTISPACE-1 OBJECT E","OBJECT_ID":"2026-060E","EPOCH":"2026-04-06T09:48:24.874272","MEAN_MOTION":14.74860184,"ECCENTRICITY":0.00128411,"INCLINATION":54.9777,"RA_OF_ASC_NODE":328.5107,"ARG_OF_PERICENTER":340.1409,"MEAN_ANOMALY":19.9089,"EPHEMERIS_TYPE":0,"CLASSIFICATION_TYPE":"U","NORAD_CAT_ID":68354,"ELEMENT_SET_NO":999,"REV_AT_EPOCH":218,"BSTAR":3.9395794e-5,"MEAN_MOTION_DOT":5.7e-7,"MEAN_MOTION_DDOT":0},{"OBJECT_NAME":"CENTISPACE-1 OBJECT F","OBJECT_ID":"2026-060F","EPOCH":"2026-04-05T19:09:59.644800","MEAN_MOTION":14.74955235,"ECCENTRICITY":0.00128704,"INCLINATION":54.9777,"RA_OF_ASC_NODE":330.9993,"ARG_OF_PERICENTER":336.1698,"MEAN_ANOMALY":23.8704,"EPHEMERIS_TYPE":0,"CLASSIFICATION_TYPE":"U","NORAD_CAT_ID":68355,"ELEMENT_SET_NO":999,"REV_AT_EPOCH":209,"BSTAR":4.3343164e-5,"MEAN_MOTION_DOT":8.4e-7,"MEAN_MOTION_DDOT":0},{"OBJECT_NAME":"CENTISPACE-1 OBJECT G","OBJECT_ID":"2026-060G","EPOCH":"2026-04-06T21:09:46.086624","MEAN_MOTION":14.75165457,"ECCENTRICITY":0.00135205,"INCLINATION":54.9907,"RA_OF_ASC_NODE":326.5853,"ARG_OF_PERICENTER":338.9161,"MEAN_ANOMALY":21.1279,"EPHEMERIS_TYPE":0,"CLASSIFICATION_TYPE":"U","NORAD_CAT_ID":68356,"ELEMENT_SET_NO":999,"REV_AT_EPOCH":225,"BSTAR":3.9760246e-5,"MEAN_MOTION_DOT":6.1e-7,"MEAN_MOTION_DDOT":0},{"OBJECT_NAME":"CENTISPACE-1 OBJECT H","OBJECT_ID":"2026-060H","EPOCH":"2026-04-02T09:49:01.049088","MEAN_MOTION":14.75277593,"ECCENTRICITY":0.00138214,"INCLINATION":54.9838,"RA_OF_ASC_NODE":344.8287,"ARG_OF_PERICENTER":328.1926,"MEAN_ANOMALY":31.8237,"EPHEMERIS_TYPE":0,"CLASSIFICATION_TYPE":"U","NORAD_CAT_ID":68357,"ELEMENT_SET_NO":999,"REV_AT_EPOCH":159,"BSTAR":4.8805088e-5,"MEAN_MOTION_DOT":1.23e-6,"MEAN_MOTION_DDOT":0},{"OBJECT_NAME":"CENTISPACE-1 OBJECT J","OBJECT_ID":"2026-060J","EPOCH":"2026-04-06T14:38:09.672288","MEAN_MOTION":14.75158345,"ECCENTRICITY":0.00149753,"INCLINATION":54.9827,"RA_OF_ASC_NODE":327.686,"ARG_OF_PERICENTER":340.2535,"MEAN_ANOMALY":19.7883,"EPHEMERIS_TYPE":0,"CLASSIFICATION_TYPE":"U","NORAD_CAT_ID":68358,"ELEMENT_SET_NO":999,"REV_AT_EPOCH":221,"BSTAR":3.8690224e-5,"MEAN_MOTION_DOT":5.3e-7,"MEAN_MOTION_DDOT":0}]
