STARLINK-37158          
1 68343U 26059Y   26097.06121798  .00478641  00000+0  22804-2 0  9991
2 68343  53.1587 220.5013 0004349  62.7020 297.4445 15.81026554  2469
STARLINK-36380          
1 68344U 26059Z   26096.74660834  .00318611  00000+0  15506-2 0  9996
2 68344  53.1585 222.0960 0001105  61.2300 298.8833 15.80989874  2411
STARLINK-37214          
1 68345U 26059AA  26096.74360901  .00286008  00000+0  13987-2 0  9994
2 68345  53.1589 222.0757 0001535  39.2177 320.8957 15.80973301  2415
STARLINK-37169          
1 68346U 26059AB  26097.05896079  .00490668  00000+0  23328-2 0  9999
2 68346  53.1587 220.4860 0002885  70.5609 289.5725 15.81042952  2467
STARLINK-37136          
1 68347U 26059AC  26097.05821096  .00471342  00000+0  22471-2 0  9993
2 68347  53.1585 220.4810 0002736  71.7508 288.3812 15.81033826  2461
STARLINK-37182          
1 68348U 26059AD  26097.06046885  .00415529  00000+0  19969-2 0  9993
2 68348  53.1589 220.4967 0004520  69.2216 290.9290 15.81002148  2462
STARLINK-37183          
1 68349U 26059AE  26096.74135797  .00327159  00000+0  15905-2 0  9996
2 68349  53.1593 222.0604 0000797  66.6191 293.4916 15.80989740  2418
CENTISPACE-1 OBJECT A   
1 68350U 26060A   26097.08974719 -.00009038  00000+0 -13160-2 0  9999
2 68350  54.9819 325.7725 0013272 323.0850  36.9234 14.74560609  2288
CENTISPACE-1 OBJECT B   
1 68351U 26060B   26094.78445363  .00002174  00000+0  35156-3 0  9994
2 68351  54.9820 335.1667 0013530 326.8800  33.1351 14.74944202  1940
CENTISPACE-1 OBJECT C   
1 68352U 26060C   26095.73164918  .00000086  00000+0  43653-4 0  9997
2 68352  54.9852 331.2905 0012134 338.2549  21.7934 14.74891649  2086
CENTISPACE-1 OBJECT D   
1 68353U 26060D   26095.73166100  .00000086  00000+0  43679-4 0  9991
2 68353  54.9822 331.2869 0012407 338.9865  21.0623 14.74881966  2083
CENTISPACE-1 OBJECT E   
1 68354U 26060E   26096.40862123  .00000057  00000+0  39396-4 0  9994
2 68354  54.9777 328.5107 0012841 340.1409  19.9089 14.74860184  2180
CENTISPACE-1 OBJECT F   
1 68355U 26060F   26095.79860700  .00000084  00000+0  43343-4 0  9992
2 68355  54.9777 330.9993 0012870 336.1698  23.8704 14.74955235  2098
CENTISPACE-1 OBJECT G   
1 68356U 26060G   26096.88178341  .00000061  00000+0  39760-4 0  9990
2 68356  54.9907 326.5853 0013520 338.9161  21.1279 14.75165457  2254
CENTISPACE-1 OBJECT H   
1 68357U 26060H   26092.40903992  .00000123  00000+0  48805-4 0  9992
2 68357  54.9838 344.8287 0013821 328.1926  31.8237 14.75277593  1599
CENTISPACE-1 OBJECT J   
1 68358U 26060J   26096.60983417  .00000053  00000+0  38690-4 0  9992
2 68358  54.9827 327.6860 0014975 340.2535  19.7883 14.75158345  2211
